NORAD_CAT_ID,OBJECT_NAME,OBJECT_TYPE,EPOCH,MEAN_MOTION,ECCENTRICITY,INCLINATION,RA_OF_ASC_NODE,ARG_OF_PERICENTER,MEAN_ANOMALY,BSTAR,MEAN_MOTION_DOT,MEAN_MOTION_DDOT,TLE_LINE0,TLE_LINE1,TLE_LINE2,SEMIMAJOR_AXIS,PERIOD,APOGEE,PERIGEE,DECAYED
52563.0,STARLINK-3942,PAYLOAD,2023-05-06 06:06:56,15.0884465,0.0001301,53.2159,115.8329,84.2503,275.8638,0.00010697,1.415e-05,0.0,0 STARLINK-3942,1 52563U 22051AG  23126.25481827  .00001415  00000-0  10697-3 0  9999,2 52563  53.2159 115.8329 0001301  84.2503 275.8638 15.08844650 54676,6917.866,95.437,540.631,538.831,0.0
52563.0,STARLINK-3942,PAYLOAD,2023-05-06 09:17:42,15.08845017,0.0001304,53.2159,115.2382,84.0873,276.0267,0.00010839,1.438e-05,0.0,0 STARLINK-3942,1 52563U 22051AG  23126.38729796  .00001438  00000-0  10839-3 0  9996,2 52563  53.2159 115.2382 0001304  84.0873 276.0267 15.08845017 54624,6917.865,95.437,540.632,538.828,0.0
52563.0,STARLINK-3942,PAYLOAD,2023-05-07 02:46:57,15.08841172,0.0001271,53.2159,111.967,83.7034,276.4103,0.00011788,1.589e-05,0.0,0 STARLINK-3942,1 52563U 22051AG  23127.11594022  .00001589  00000-0  11788-3 0  9991,2 52563  53.2159 111.9670 0001271  83.7034 276.4103 15.08841172 54806,6917.877,95.437,540.621,538.863,0.0
52563.0,STARLINK-3942,PAYLOAD,2023-05-07 05:57:43,15.08843909,0.0001279,53.216,111.3724,83.7813,276.3325,0.00013968,1.936e-05,0.0,0 STARLINK-3942,1 52563U 22051AG  23127.24841816  .00001936  00000-0  13968-3 0  9999,2 52563  53.2160 111.3724 0001279  83.7813 276.3325 15.08843909 54754,6917.868,95.437,540.618,538.849,0.0
52563.0,STARLINK-3942,PAYLOAD,2023-05-07 15:30:02,15.08837791,0.0001253,53.2156,109.5884,82.687,277.4265,6.2786e-05,7.11e-06,0.0,0 STARLINK-3942,1 52563U 22051AG  23127.64586397  .00000711  00000-0  62786-4 0  9996,2 52563  53.2156 109.5884 0001253  82.6870 277.4265 15.08837791 54812,6917.887,95.438,540.619,538.885,0.0
52563.0,STARLINK-3942,PAYLOAD,2023-05-08 05:48:31,15.08833204,0.0001359,53.2174,106.9162,94.135,265.9797,-1.8674e-05,-5.85e-06,0.0,0 STARLINK-3942,1 52563U 22051AG  23128.24203018 -.00000585  00000-0 -18674-4 0  9997,2 52563  53.2174 106.9162 0001359  94.1350 265.9797 15.08833204 54974,6917.901,95.438,540.706,538.826,0.0
52563.0,STARLINK-3942,PAYLOAD,2023-05-08 15:20:50,15.08836365,0.0001409,53.2177,105.1321,98.7002,261.415,-2.5837e-05,-6.99e-06,0.0,0 STARLINK-3942,1 52563U 22051AG  23128.63946962 -.00000699  00000-0 -25837-4 0  9997,2 52563  53.2177 105.1321 0001409  98.7002 261.4150 15.08836365 54969,6917.891,95.438,540.731,538.782,0.0
52563.0,STARLINK-3942,PAYLOAD,2023-05-09 10:25:27,15.08847593,0.0001305,53.2171,101.5613,97.054,263.0601,6.0892e-05,6.82e-06,0.0,0 STARLINK-3942,1 52563U 22051AG  23129.43434055  .00000682  00000-0  60892-4 0  9991,2 52563  53.2171 101.5613 0001305  97.0540 263.0601 15.08847593 55089,6917.857,95.437,540.625,538.819,0.0
52563.0,STARLINK-3942,PAYLOAD,2023-05-10 05:30:05,15.08839979,0.0001207,53.2167,97.9923,89.0934,271.0196,0.00010322,1.355e-05,0.0,0 STARLINK-3942,1 52563U 22051AG  23130.22922700  .00001355  00000-0  10322-3 0  9999,2 52563  53.2167  97.9923 0001207  89.0934 271.0196 15.08839979 55206,6917.88,95.438,540.58,538.91,0.0
52563.0,STARLINK-3942,PAYLOAD,2023-05-11 03:45:29,15.08841518,0.000127,53.2172,93.8284,94.7555,265.3583,6.5607e-05,7.56e-06,0.0,0 STARLINK-3942,1 52563U 22051AG  23131.15658767  .00000756  00000-0  65607-4 0  9992,2 52563  53.2172  93.8284 0001270  94.7555 265.3583 15.08841518 55410,6917.876,95.437,540.619,538.862,0.0
52563.0,STARLINK-3942,PAYLOAD,2023-05-12 03:36:16,15.08837701,0.0001149,53.217,89.3676,88.3529,271.7594,-4.2177e-06,-3.55e-06,0.0,0 STARLINK-3942,1 52563U 22051AG  23132.15019390 -.00000355  00000-0 -42177-5 0  9991,2 52563  53.2170  89.3676 0001149  88.3529 271.7594 15.08837701 55566,6917.887,95.438,540.547,538.958,0.0
52563.0,STARLINK-3942,PAYLOAD,2023-05-13 03:27:02,15.08855236,0.0001192,53.2172,84.9073,87.0871,273.0257,0.00011214,1.498e-05,0.0,0 STARLINK-3942,1 52563U 22051AG  23133.14378053  .00001498  00000-0  11214-3 0  9998,2 52563  53.2172  84.9073 0001192  87.0871 273.0257 15.08855236 55715,6917.834,95.437,540.523,538.874,0.0
52563.0,STARLINK-3942,PAYLOAD,2023-05-13 06:37:48,15.08878109,0.0001329,53.2175,84.3129,80.8385,279.2757,-0.00010007,-1.882e-05,0.0,0 STARLINK-3942,1 52563U 22051AG  23133.27625036 -.00001882  00000-0 -10007-3 0  9996,2 52563  53.2175  84.3129 0001329  80.8385 279.2757 15.08878109 55736,6917.764,95.435,540.548,538.71,0.0
52563.0,STARLINK-3942,PAYLOAD,2023-05-14 06:28:34,15.08875946,0.000124,53.2169,79.8524,98.3966,261.7166,0.00052328,8.058e-05,0.0,0 STARLINK-3942,1 52563U 22051AG  23134.26984824  .00008058  00000-0  52328-3 0  9991,2 52563  53.2169  79.8524 0001240  98.3966 261.7166 15.08875946 55880,6917.771,95.435,540.493,538.778,0.0
52563.0,STARLINK-3942,PAYLOAD,2023-05-14 20:47:04,15.08838375,0.0001489,53.2169,77.1767,97.1947,262.9215,-0.00025526,-4.348e-05,0.0,0 STARLINK-3942,1 52563U 22051AG  23134.86602288 -.00004348  00000-0 -25526-3 0  9998,2 52563  53.2169  77.1767 0001489  97.1947 262.9215 15.08838375 55907,6917.885,95.438,540.78,538.72,0.0
52563.0,STARLINK-3942,PAYLOAD,2023-05-14 23:57:50,15.08833748,0.0001499,53.2173,76.583,115.1738,244.941,-0.00030813,-5.188e-05,0.0,0 STARLINK-3942,1 52563U 22051AG  23134.99850457 -.00005188  00000-0 -30813-3 0  9993,2 52563  53.2173  76.5830 0001499 115.1738 244.9410 15.08833748 55991,6917.899,95.438,540.801,538.728,0.0
52563.0,STARLINK-3942,PAYLOAD,2023-05-15 12:40:56,15.08828593,0.0001438,53.2174,74.2049,116.9401,243.1738,-0.00027744,-4.699e-05,0.0,0 STARLINK-3942,1 52563U 22051AG  23135.52842971 -.00004699  00000-0 -27744-3 0  9990,2 52563  53.2174  74.2049 0001438 116.9401 243.1738 15.08828593 56007,6917.915,95.438,540.775,538.785,0.0
52563.0,STARLINK-3942,PAYLOAD,2023-05-16 01:24:01,15.08847973,0.000105,53.2172,71.8232,90.265,269.8463,-0.00014906,-2.66e-05,0.0,0 STARLINK-3942,1 52563U 22051AG  23136.05835041 -.00002660  00000-0 -14906-3 0  9991,2 52563  53.2172  71.8232 0001050  90.2650 269.8463 15.08847973 56151,6917.856,95.437,540.447,538.995,0.0
52563.0,STARLINK-3942,PAYLOAD,2023-05-16 18:53:15,15.08842342,0.0001161,53.2164,68.5521,80.7173,279.395,-0.00013356,-2.413e-05,0.0,0 STARLINK-3942,1 52563U 22051AG  23136.78698881 -.00002413  00000-0 -13356-3 0  9994,2 52563  53.2164  68.5521 0001161  80.7173 279.3950 15.08842342 56199,6917.873,95.437,540.541,538.935,0.0
52563.0,STARLINK-3942,PAYLOAD,2023-05-17 01:14:49,15.08834952,0.0001135,53.2163,67.3629,81.7361,278.376,0.0002848,4.247e-05,0.0,0 STARLINK-3942,1 52563U 22051AG  23137.05195682  .00004247  00000-0  28480-3 0  9995,2 52563  53.2163  67.3629 0001135  81.7361 278.3760 15.08834952 56304,6917.896,95.438,540.546,538.976,0.0
52563.0,STARLINK-3942,PAYLOAD,2023-05-17 04:25:35,15.08838989,0.0001182,53.2167,66.7684,83.8033,276.3094,0.00032565,4.899e-05,0.0,0 STARLINK-3942,1 52563U 22051AG  23137.18443569  .00004899  00000-0  32565-3 0  9991,2 52563  53.2167  66.7684 0001182  83.8033 276.3094 15.08838989 56259,6917.883,95.438,540.566,538.931,0.0
52563.0,STARLINK-3942,PAYLOAD,2023-05-18 02:40:59,15.08840878,0.0001399,53.2178,62.6051,82.011,278.1041,0.00013187,1.811e-05,0.0,0 STARLINK-3942,1 52563U 22051AG  23138.11179769  .00001811  00000-0  13187-3 0  9993,2 52563  53.2178  62.6051 0001399  82.0110 278.1041 15.08840878 56466,6917.878,95.437,540.711,538.775,0.0
52563.0,STARLINK-3942,PAYLOAD,2023-05-18 04:16:22,15.08842883,0.0001394,53.2177,62.3073,84.3547,275.7604,0.00015854,2.236e-05,0.0,0 STARLINK-3942,1 52563U 22051AG  23138.17803650  .00002236  00000-0  15854-3 0  9997,2 52563  53.2177  62.3073 0001394  84.3547 275.7604 15.08842883 56400,6917.872,95.437,540.701,538.772,0.0
52563.0,STARLINK-3942,PAYLOAD,2023-05-19 00:56:23,15.08837363,0.0001312,53.2173,58.4402,103.6715,256.4423,6.8209e-07,-2.77e-06,0.0,0 STARLINK-3942,1 52563U 22051AG  23139.03916019 -.00000277  00000-0  68209-6 0  9996,2 52563  53.2173  58.4402 0001312 103.6715 256.4423 15.08837363 56604,6917.888,95.438,540.661,538.846,0.0
52563.0,STARLINK-3942,PAYLOAD,2023-05-19 21:36:24,15.08837875,0.0001434,53.2181,54.5747,105.8857,254.2293,0.00033586,5.061e-05,0.0,0 STARLINK-3942,1 52563U 22051AG  23139.90028114  .00005061  00000-0  33586-3 0  9994,2 52563  53.2181  54.5747 0001434 105.8857 254.2293 15.08837875 56663,6917.887,95.438,540.744,538.76,0.0
52563.0,STARLINK-3942,PAYLOAD,2023-05-20 03:57:56,15.08851955,0.0001292,53.2176,53.3854,101.9876,258.1261,0.00026025,3.858e-05,0.0,0 STARLINK-3942,1 52563U 22051AG  23140.16523454  .00003858  00000-0  26025-3 0  9993,2 52563  53.2176  53.3854 0001292 101.9876 258.1261 15.08851955 56778,6917.844,95.437,540.603,538.815,0.0
52563.0,STARLINK-3942,PAYLOAD,2023-05-20 23:02:33,15.08852951,0.0001289,53.2179,49.8161,103.2956,256.818,0.0002489,3.677e-05,0.0,0 STARLINK-3942,1 52563U 22051AG  23140.96011076  .00003677  00000-0  24890-3 0  9990,2 52563  53.2179  49.8161 0001289 103.2956 256.8180 15.08852951 56897,6917.841,95.437,540.598,538.814,0.0
52563.0,STARLINK-3942,PAYLOAD,2023-05-21 18:07:12,15.08830392,9.72e-05,53.2177,46.2489,76.0227,284.0873,-0.00016268,-2.875e-05,0.0,0 STARLINK-3942,1 52563U 22051AG  23141.75500449 -.00002875  00000-0 -16268-3 0  9996,2 52563  53.2177  46.2489 0000972  76.0227 284.0873 15.08830392 57017,6917.91,95.438,540.447,539.102,0.0
52563.0,STARLINK-3942,PAYLOAD,2023-05-22 10:01:03,15.08835764,0.0001121,53.2182,43.2759,98.6019,261.51,-5.7249e-06,-3.79e-06,0.0,0 STARLINK-3942,1 52563U 22051AG  23142.41740548 -.00000379  00000-0 -57249-5 0  9999,2 52563  53.2182  43.2759 0001121  98.6019 261.5100 15.08835764 57118,6917.893,95.438,540.534,538.983,0.0
52563.0,STARLINK-3942,PAYLOAD,2023-05-22 19:33:22,15.08843282,0.0001088,53.2181,41.4932,99.8947,260.2168,0.00025023,3.697e-05,0.0,0 STARLINK-3942,1 52563U 22051AG  23142.81484487  .00003697  00000-0  25023-3 0  9997,2 52563  53.2181  41.4932 0001088  99.8947 260.2168 15.08843282 57108,6917.87,95.437,540.488,538.983,0.0
